{
  "type": "FeatureCollection",
  "features": [
    {
      "type": "Feature",
      "properties": {
        "norad_id": 67046,
        "name": "STARLINK-35721",
        "group": "last-30-days",
        "lat": -38.457685660247584,
        "lon": -3.5343956173679874,
        "alt_km": 334.0283290050402,
        "timestamp": "2025-12-23T05:02:10.752842+00:00",
        "meta_object_name": "STARLINK-35721",
        "meta_object_id": "2025-294S",
        "meta_epoch": "2025-12-22T22:00:03.000096",
        "meta_mean_motion": 15.80818415,
        "meta_eccentricity": 0.00015968,
        "meta_inclination": 43.0002,
        "meta_ra_of_asc_node": 119.7924,
        "meta_arg_of_pericenter": 286.451,
        "meta_mean_anomaly": 89.6907,
        "meta_ephemeris_type": 0,
        "meta_classification_type": "U",
        "meta_norad_cat_id": 67046,
        "meta_element_set_no": 999,
        "meta_rev_at_epoch": 194,
        "meta_bstar": -0.011066349,
        "meta_mean_motion_dot": -0.01920224,
        "meta_mean_motion_ddot": 0,
        "tle_line1": "1 67046U 25294S   25356.91670139 -.01920224  00000+0 -11066-1 0  9998",
        "tle_line2": "2 67046  43.0002 119.7924 0001596 286.4510  89.6907 15.80818415  1948"
      },
      "geometry": {
        "type": "Point",
        "coordinates": [
          -3.5343956173679874,
          -38.457685660247584
        ]
      }
    },
    {
      "type": "Feature",
      "properties": {
        "norad_id": 67047,
        "name": "STARLINK-35779",
        "group": "last-30-days",
        "lat": -39.29543768773976,
        "lon": -0.5769885574736108,
        "alt_km": 334.0638098001955,
        "timestamp": "2025-12-23T05:02:10.752852+00:00",
        "meta_object_name": "STARLINK-35779",
        "meta_object_id": "2025-294T",
        "meta_epoch": "2025-12-22T22:00:03.000096",
        "meta_mean_motion": 15.80806052,
        "meta_eccentricity": 0.00014689,
        "meta_inclination": 43,
        "meta_ra_of_asc_node": 119.7865,
        "meta_arg_of_pericenter": 280.2245,
        "meta_mean_anomaly": 98.389,
        "meta_ephemeris_type": 0,
        "meta_classification_type": "U",
        "meta_norad_cat_id": 67047,
        "meta_element_set_no": 999,
        "meta_rev_at_epoch": 175,
        "meta_bstar": -0.011147773,
        "meta_mean_motion_dot": -0.01931365,
        "meta_mean_motion_ddot": 0,
        "tle_line1": "1 67047U 25294T   25356.91670139 -.01931365  00000+0 -11148-1 0  9998",
        "tle_line2": "2 67047  43.0000 119.7865 0001468 280.2245  98.3890 15.80806052  1757"
      },
      "geometry": {
        "type": "Point",
        "coordinates": [
          -0.5769885574736108,
          -39.29543768773976
        ]
      }
    },
    {
      "type": "Feature",
      "properties": {
        "norad_id": 67048,
        "name": "STARLINK-35905",
        "group": "last-30-days",
        "lat": -39.91163309573637,
        "lon": 1.8425031621346992,
        "alt_km": 334.12021037879094,
        "timestamp": "2025-12-23T05:02:10.752862+00:00",
        "meta_object_name": "STARLINK-35905",
        "meta_object_id": "2025-294U",
        "meta_epoch": "2025-12-22T22:00:03.000096",
        "meta_mean_motion": 15.8080187,
        "meta_eccentricity": 0.0001416,
        "meta_inclination": 42.9999,
        "meta_ra_of_asc_node": 119.7814,
        "meta_arg_of_pericenter": 281.5189,
        "meta_mean_anomaly": 99.0673,
        "meta_ephemeris_type": 0,
        "meta_classification_type": "U",
        "meta_norad_cat_id": 67048,
        "meta_element_set_no": 999,
        "meta_rev_at_epoch": 186,
        "meta_bstar": -0.011130257,
        "meta_mean_motion_dot": -0.01928356,
        "meta_mean_motion_ddot": 0,
        "tle_line1": "1 67048U 25294U   25356.91670139 -.01928356  00000+0 -11130-1 0  9996",
        "tle_line2": "2 67048  42.9999 119.7814 0001416 281.5189  99.0673 15.80801870  1863"
      },
      "geometry": {
        "type": "Point",
        "coordinates": [
          1.8425031621346992,
          -39.91163309573637
        ]
      }
    },
    {
      "type": "Feature",
      "properties": {
        "norad_id": 67049,
        "name": "STARLINK-35877",
        "group": "last-30-days",
        "lat": -40.583324486629145,
        "lon": 4.799940722186884,
        "alt_km": 334.12479394010643,
        "timestamp": "2025-12-23T05:02:10.752871+00:00",
        "meta_object_name": "STARLINK-35877",
        "meta_object_id": "2025-294V",
        "meta_epoch": "2025-12-22T22:00:03.000096",
        "meta_mean_motion": 15.80775084,
        "meta_eccentricity": 0.00015557,
        "meta_inclination": 43.0004,
        "meta_ra_of_asc_node": 119.7755,
        "meta_arg_of_pericenter": 283.5888,
        "meta_mean_anomaly": 99.3857,
        "meta_ephemeris_type": 0,
        "meta_classification_type": "U",
        "meta_norad_cat_id": 67049,
        "meta_element_set_no": 999,
        "meta_rev_at_epoch": 194,
        "meta_bstar": -0.01107851,
        "meta_mean_motion_dot": -0.01918634,
        "meta_mean_motion_ddot": 0,
        "tle_line1": "1 67049U 25294V   25356.91670139 -.01918634  00000+0 -11079-1 0  9997",
        "tle_line2": "2 67049  43.0004 119.7755 0001555 283.5888  99.3857 15.80775084  1942"
      },
      "geometry": {
        "type": "Point",
        "coordinates": [
          4.799940722186884,
          -40.583324486629145
        ]
      }
    },
    {
      "type": "Feature",
      "properties": {
        "norad_id": 67050,
        "name": "STARLINK-36078",
        "group": "last-30-days",
        "lat": -41.18287390082453,
        "lon": 7.8448382883359224,
        "alt_km": 334.1124607872298,
        "timestamp": "2025-12-23T05:02:10.752883+00:00",
        "meta_object_name": "STARLINK-36078",
        "meta_object_id": "2025-294W",
        "meta_epoch": "2025-12-22T22:00:03.000096",
        "meta_mean_motion": 15.80761897,
        "meta_eccentricity": 0.00016083,
        "meta_inclination": 43.0003,
        "meta_ra_of_asc_node": 119.7695,
        "meta_arg_of_pericenter": 281.0294,
        "meta_mean_anomaly": 104.348,
        "meta_ephemeris_type": 0,
        "meta_classification_type": "U",
        "meta_norad_cat_id": 67050,
        "meta_element_set_no": 999,
        "meta_rev_at_epoch": 186,
        "meta_bstar": -0.011144792,
        "meta_mean_motion_dot": -0.01927603,
        "meta_mean_motion_ddot": 0,
        "tle_line1": "1 67050U 25294W   25356.91670139 -.01927603  00000+0 -11145-1 0  9999",
        "tle_line2": "2 67050  43.0003 119.7695 0001608 281.0294 104.3480 15.80761897  1866"
      },
      "geometry": {
        "type": "Point",
        "coordinates": [
          7.8448382883359224,
          -41.18287390082453
        ]
      }
    },
    {
      "type": "Feature",
      "properties": {
        "norad_id": 67051,
        "name": "STARLINK-35706",
        "group": "last-30-days",
        "lat": -41.69635198547429,
        "lon": 10.91356770024934,
        "alt_km": 334.12376882161607,
        "timestamp": "2025-12-23T05:02:10.752893+00:00",
        "meta_object_name": "STARLINK-35706",
        "meta_object_id": "2025-294X",
        "meta_epoch": "2025-12-22T22:00:03.000096",
        "meta_mean_motion": 15.80742282,
        "meta_eccentricity": 0.00017158,
        "meta_inclination": 43.0004,
        "meta_ra_of_asc_node": 119.7634,
        "meta_arg_of_pericenter": 283.4899,
        "meta_mean_anomaly": 104.2732,
        "meta_ephemeris_type": 0,
        "meta_classification_type": "U",
        "meta_norad_cat_id": 67051,
        "meta_element_set_no": 999,
        "meta_rev_at_epoch": 194,
        "meta_bstar": -0.011140469,
        "meta_mean_motion_dot": -0.01925533,
        "meta_mean_motion_ddot": 0,
        "tle_line1": "1 67051U 25294X   25356.91670139 -.01925533  00000+0 -11140-1 0  9995",
        "tle_line2": "2 67051  43.0004 119.7634 0001715 283.4899 104.2732 15.80742282  1942"
      },
      "geometry": {
        "type": "Point",
        "coordinates": [
          10.91356770024934,
          -41.69635198547429
        ]
      }
    },
    {
      "type": "Feature",
      "properties": {
        "norad_id": 67052,
        "name": "STARLINK-35720",
        "group": "last-30-days",
        "lat": -42.064852471755536,
        "lon": 13.539010922093553,
        "alt_km": 334.10241630258224,
        "timestamp": "2025-12-23T05:02:10.752903+00:00",
        "meta_object_name": "STARLINK-35720",
        "meta_object_id": "2025-294Y",
        "meta_epoch": "2025-12-22T22:00:03.000096",
        "meta_mean_motion": 15.8074314,
        "meta_eccentricity": 0.00017501,
        "meta_inclination": 43.0003,
        "meta_ra_of_asc_node": 119.7585,
        "meta_arg_of_pericenter": 283.6797,
        "meta_mean_anomaly": 106.0795,
        "meta_ephemeris_type": 0,
        "meta_classification_type": "U",
        "meta_norad_cat_id": 67052,
        "meta_element_set_no": 999,
        "meta_rev_at_epoch": 193,
        "meta_bstar": -0.011167255,
        "meta_mean_motion_dot": -0.01929647,
        "meta_mean_motion_ddot": 0,
        "tle_line1": "1 67052U 25294Y   25356.91670139 -.01929647  00000+0 -11167-1 0  9995",
        "tle_line2": "2 67052  43.0003 119.7585 0001750 283.6797 106.0795 15.80743140  1937"
      },
      "geometry": {
        "type": "Point",
        "coordinates": [
          13.539010922093553,
          -42.064852471755536
        ]
      }
    }
  ]
}